[
  {
    "OBJECT_NAME": "STARLINK-32090",
    "OBJECT_ID": "24086K",
    "EPOCH": "2025-11-11T04:27:16.849152",
    "MEAN_MOTION": 15.27573924,
    "ECCENTRICITY": 0.0001243,
    "INCLINATION": 42.999,
    "RA_OF_ASC_NODE": 13.0144,
    "ARG_OF_PERICENTER": 247.9563,
    "MEAN_ANOMALY": 112.1157,
    "EPHEMERIS_TYPE": 0,
    "CLASSIFICATION_TYPE": "U",
    "NORAD_CAT_ID": 59691,
    "ELEMENT_SET_NO": 999,
    "REV_AT_EPOCH": 8594,
    "BSTAR": 5.5382e-05,
    "MEAN_MOTION_DOT": 1.262e-05,
    "MEAN_MOTION_DDOT": 0.0,
    "TLE_LINE1": "1 59691U 24086K   25315.18561168  .00001262  00000+0  55382-4 0  9999",
    "TLE_LINE2": "2 59691  42.9990  13.0144 0001243 247.9563 112.1157 15.27573924 85943",
    "COMMENT": "Grouped by shell and plane from TLE"
  },
  {
    "OBJECT_NAME": "STARLINK-32580",
    "OBJECT_ID": "24217U",
    "EPOCH": "2025-11-11T07:19:51.654144",
    "MEAN_MOTION": 15.30209306,
    "ECCENTRICITY": 0.0001926,
    "INCLINATION": 53.1592,
    "RA_OF_ASC_NODE": 11.1825,
    "ARG_OF_PERICENTER": 12.3998,
    "MEAN_ANOMALY": 347.705,
    "EPHEMERIS_TYPE": 0,
    "CLASSIFICATION_TYPE": "U",
    "NORAD_CAT_ID": 62075,
    "ELEMENT_SET_NO": 999,
    "REV_AT_EPOCH": 5547,
    "BSTAR": 0.0018306,
    "MEAN_MOTION_DOT": 0.00054272,
    "MEAN_MOTION_DDOT": 0.0,
    "TLE_LINE1": "1 62075U 24217U   25315.30545896  .00054272  00000+0  18306-2 0  9991",
    "TLE_LINE2": "2 62075  53.1592  11.1825 0001926  12.3998 347.7050 15.30209306 55471",
    "COMMENT": "Grouped by shell and plane from TLE"
  },
  {
    "OBJECT_NAME": "STARLINK-32617",
    "OBJECT_ID": "24217V",
    "EPOCH": "2025-11-11T03:33:45.733536",
    "MEAN_MOTION": 15.30237751,
    "ECCENTRICITY": 0.0001209,
    "INCLINATION": 53.1628,
    "RA_OF_ASC_NODE": 11.624,
    "ARG_OF_PERICENTER": 67.3459,
    "MEAN_ANOMALY": 292.767,
    "EPHEMERIS_TYPE": 0,
    "CLASSIFICATION_TYPE": "U",
    "NORAD_CAT_ID": 62076,
    "ELEMENT_SET_NO": 999,
    "REV_AT_EPOCH": 5545,
    "BSTAR": 0.0013292000000000002,
    "MEAN_MOTION_DOT": 0.00039262,
    "MEAN_MOTION_DDOT": 0.0,
    "TLE_LINE1": "1 62076U 24217V   25315.14844599  .00039262  00000+0  13292-2 0  9997",
    "TLE_LINE2": "2 62076  53.1628  11.6240 0001209  67.3459 292.7670 15.30237751 55454",
    "COMMENT": "Grouped by shell and plane from TLE"
  },
  {
    "OBJECT_NAME": "STARLINK-32648",
    "OBJECT_ID": "24239A",
    "EPOCH": "2025-11-11T03:49:00.309504",
    "MEAN_MOTION": 15.30233223,
    "ECCENTRICITY": 7.39e-05,
    "INCLINATION": 53.1613,
    "RA_OF_ASC_NODE": 11.8964,
    "ARG_OF_PERICENTER": 46.4664,
    "MEAN_ANOMALY": 313.6398,
    "EPHEMERIS_TYPE": 0,
    "CLASSIFICATION_TYPE": "U",
    "NORAD_CAT_ID": 62301,
    "ELEMENT_SET_NO": 999,
    "REV_AT_EPOCH": 5141,
    "BSTAR": 0.0012064,
    "MEAN_MOTION_DOT": 0.0003558,
    "MEAN_MOTION_DDOT": 0.0,
    "TLE_LINE1": "1 62301U 24239A   25315.15903136  .00035580  00000+0  12064-2 0  9991",
    "TLE_LINE2": "2 62301  53.1613  11.8964 0000739  46.4664 313.6398 15.30233223 51419",
    "COMMENT": "Grouped by shell and plane from TLE"
  },
  {
    "OBJECT_NAME": "STARLINK-32621",
    "OBJECT_ID": "24239C",
    "EPOCH": "2025-11-11T04:32:54.580704",
    "MEAN_MOTION": 15.30225663,
    "ECCENTRICITY": 0.0001648,
    "INCLINATION": 53.158,
    "RA_OF_ASC_NODE": 11.3741,
    "ARG_OF_PERICENTER": 103.9856,
    "MEAN_ANOMALY": 256.1328,
    "EPHEMERIS_TYPE": 0,
    "CLASSIFICATION_TYPE": "U",
    "NORAD_CAT_ID": 62303,
    "ELEMENT_SET_NO": 999,
    "REV_AT_EPOCH": 5142,
    "BSTAR": 0.0013655000000000002,
    "MEAN_MOTION_DOT": 0.00040334,
    "MEAN_MOTION_DDOT": 0.0,
    "TLE_LINE1": "1 62303U 24239C   25315.18952061  .00040334  00000+0  13655-2 0  9997",
    "TLE_LINE2": "2 62303  53.1580  11.3741 0001648 103.9856 256.1328 15.30225663 51428",
    "COMMENT": "Grouped by shell and plane from TLE"
  },
  {
    "OBJECT_NAME": "STARLINK-32597",
    "OBJECT_ID": "24239D",
    "EPOCH": "2025-11-10T13:28:51.324096",
    "MEAN_MOTION": 15.30200608,
    "ECCENTRICITY": 7.76e-05,
    "INCLINATION": 53.1603,
    "RA_OF_ASC_NODE": 14.5714,
    "ARG_OF_PERICENTER": 52.7858,
    "MEAN_ANOMALY": 307.3214,
    "EPHEMERIS_TYPE": 0,
    "CLASSIFICATION_TYPE": "U",
    "NORAD_CAT_ID": 62304,
    "ELEMENT_SET_NO": 999,
    "REV_AT_EPOCH": 5132,
    "BSTAR": 0.0014549,
    "MEAN_MOTION_DOT": 0.00042981,
    "MEAN_MOTION_DDOT": 0.0,
    "TLE_LINE1": "1 62304U 24239D   25314.56170514  .00042981  00000+0  14549-2 0  9997",
    "TLE_LINE2": "2 62304  53.1603  14.5714 0000776  52.7858 307.3214 15.30200608 51328",
    "COMMENT": "Grouped by shell and plane from TLE"
  },
  {
    "OBJECT_NAME": "STARLINK-32646",
    "OBJECT_ID": "24239G",
    "EPOCH": "2025-11-11T04:26:49.881120",
    "MEAN_MOTION": 15.30234927,
    "ECCENTRICITY": 0.000136,
    "INCLINATION": 53.1588,
    "RA_OF_ASC_NODE": 11.3512,
    "ARG_OF_PERICENTER": 98.899,
    "MEAN_ANOMALY": 261.2165,
    "EPHEMERIS_TYPE": 0,
    "CLASSIFICATION_TYPE": "U",
    "NORAD_CAT_ID": 62307,
    "ELEMENT_SET_NO": 999,
    "REV_AT_EPOCH": 5142,
    "BSTAR": 0.0013794999999999999,
    "MEAN_MOTION_DOT": 0.00040766,
    "MEAN_MOTION_DDOT": 0.0,
    "TLE_LINE1": "1 62307U 24239G   25315.18529955  .00040766  00000+0  13795-2 0  9997",
    "TLE_LINE2": "2 62307  53.1588  11.3512 0001360  98.8990 261.2165 15.30234927 51427",
    "COMMENT": "Grouped by shell and plane from TLE"
  },
  {
    "OBJECT_NAME": "STARLINK-32678",
    "OBJECT_ID": "24239J",
    "EPOCH": "2025-11-11T03:42:55.596960",
    "MEAN_MOTION": 15.30228326,
    "ECCENTRICITY": 0.0001491,
    "INCLINATION": 53.1611,
    "RA_OF_ASC_NODE": 11.8704,
    "ARG_OF_PERICENTER": 71.4542,
    "MEAN_ANOMALY": 288.662,
    "EPHEMERIS_TYPE": 0,
    "CLASSIFICATION_TYPE": "U",
    "NORAD_CAT_ID": 62309,
    "ELEMENT_SET_NO": 999,
    "REV_AT_EPOCH": 5141,
    "BSTAR": 0.0010569000000000002,
    "MEAN_MOTION_DOT": 0.00031101,
    "MEAN_MOTION_DDOT": 0.0,
    "TLE_LINE1": "1 62309U 24239J   25315.15481015  .00031101  00000+0  10569-2 0  9999",
    "TLE_LINE2": "2 62309  53.1611  11.8704 0001491  71.4542 288.6620 15.30228326 51413",
    "COMMENT": "Grouped by shell and plane from TLE"
  },
  {
    "OBJECT_NAME": "STARLINK-32700",
    "OBJECT_ID": "24239L",
    "EPOCH": "2025-11-11T05:12:24.731424",
    "MEAN_MOTION": 15.3026482,
    "ECCENTRICITY": 0.0002889,
    "INCLINATION": 53.1612,
    "RA_OF_ASC_NODE": 11.546,
    "ARG_OF_PERICENTER": 70.1861,
    "MEAN_ANOMALY": 289.9451,
    "EPHEMERIS_TYPE": 0,
    "CLASSIFICATION_TYPE": "U",
    "NORAD_CAT_ID": 62311,
    "ELEMENT_SET_NO": 999,
    "REV_AT_EPOCH": 5141,
    "BSTAR": 0.0014663000000000002,
    "MEAN_MOTION_DOT": 0.00043414,
    "MEAN_MOTION_DDOT": 0.0,
    "TLE_LINE1": "1 62311U 24239L   25315.21695291  .00043414  00000+0  14663-2 0  9991",
    "TLE_LINE2": "2 62311  53.1612  11.5460 0002889  70.1861 289.9451 15.30264820 51410",
    "COMMENT": "Grouped by shell and plane from TLE"
  },
  {
    "OBJECT_NAME": "STARLINK-32634",
    "OBJECT_ID": "24239N",
    "EPOCH": "2025-11-11T04:31:23.544480",
    "MEAN_MOTION": 15.30246464,
    "ECCENTRICITY": 8.32e-05,
    "INCLINATION": 53.1579,
    "RA_OF_ASC_NODE": 11.3684,
    "ARG_OF_PERICENTER": 23.6932,
    "MEAN_ANOMALY": 336.4107,
    "EPHEMERIS_TYPE": 0,
    "CLASSIFICATION_TYPE": "U",
    "NORAD_CAT_ID": 62313,
    "ELEMENT_SET_NO": 999,
    "REV_AT_EPOCH": 5142,
    "BSTAR": 0.0016434000000000002,
    "MEAN_MOTION_DOT": 0.00048703,
    "MEAN_MOTION_DDOT": 0.0,
    "TLE_LINE1": "1 62313U 24239N   25315.18846695  .00048703  00000+0  16434-2 0  9999",
    "TLE_LINE2": "2 62313  53.1579  11.3684 0000832  23.6932 336.4107 15.30246464 51429",
    "COMMENT": "Grouped by shell and plane from TLE"
  },
  {
    "OBJECT_NAME": "STARLINK-32519",
    "OBJECT_ID": "24239S",
    "EPOCH": "2025-11-11T07:24:18.154080",
    "MEAN_MOTION": 15.30176399,
    "ECCENTRICITY": 0.000144,
    "INCLINATION": 53.1588,
    "RA_OF_ASC_NODE": 10.6927,
    "ARG_OF_PERICENTER": 64.3707,
    "MEAN_ANOMALY": 295.7443,
    "EPHEMERIS_TYPE": 0,
    "CLASSIFICATION_TYPE": "U",
    "NORAD_CAT_ID": 62317,
    "ELEMENT_SET_NO": 999,
    "REV_AT_EPOCH": 5144,
    "BSTAR": 0.0019011,
    "MEAN_MOTION_DOT": 0.00056332,
    "MEAN_MOTION_DDOT": 0.0,
    "TLE_LINE1": "1 62317U 24239S   25315.30854345  .00056332  00000+0  19011-2 0  9999",
    "TLE_LINE2": "2 62317  53.1588  10.6927 0001440  64.3707 295.7443 15.30176399 51444",
    "COMMENT": "Grouped by shell and plane from TLE"
  },
  {
    "OBJECT_NAME": "STARLINK-32527",
    "OBJECT_ID": "24239U",
    "EPOCH": "2025-11-11T07:21:15.826752",
    "MEAN_MOTION": 15.30181186,
    "ECCENTRICITY": 0.0001335,
    "INCLINATION": 53.1602,
    "RA_OF_ASC_NODE": 10.6786,
    "ARG_OF_PERICENTER": 54.983,
    "MEAN_ANOMALY": 305.1296,
    "EPHEMERIS_TYPE": 0,
    "CLASSIFICATION_TYPE": "U",
    "NORAD_CAT_ID": 62319,
    "ELEMENT_SET_NO": 999,
    "REV_AT_EPOCH": 5144,
    "BSTAR": 0.0022586999999999998,
    "MEAN_MOTION_DOT": 0.00067103,
    "MEAN_MOTION_DDOT": 0.0,
    "TLE_LINE1": "1 62319U 24239U   25315.30643318  .00067103  00000+0  22587-2 0  9997",
    "TLE_LINE2": "2 62319  53.1602  10.6786 0001335  54.9830 305.1296 15.30181186 51443",
    "COMMENT": "Grouped by shell and plane from TLE"
  },
  {
    "OBJECT_NAME": "STARLINK-32481",
    "OBJECT_ID": "24239V",
    "EPOCH": "2025-11-11T07:30:22.825152",
    "MEAN_MOTION": 15.30179724,
    "ECCENTRICITY": 0.0001074,
    "INCLINATION": 53.1595,
    "RA_OF_ASC_NODE": 10.7211,
    "ARG_OF_PERICENTER": 89.1265,
    "MEAN_ANOMALY": 270.9859,
    "EPHEMERIS_TYPE": 0,
    "CLASSIFICATION_TYPE": "U",
    "NORAD_CAT_ID": 62320,
    "ELEMENT_SET_NO": 999,
    "REV_AT_EPOCH": 5144,
    "BSTAR": 0.0022484000000000002,
    "MEAN_MOTION_DOT": 0.00066791,
    "MEAN_MOTION_DDOT": 0.0,
    "TLE_LINE1": "1 62320U 24239V   25315.31276418  .00066791  00000+0  22484-2 0  9991",
    "TLE_LINE2": "2 62320  53.1595  10.7211 0001074  89.1265 270.9859 15.30179724 51441",
    "COMMENT": "Grouped by shell and plane from TLE"
  }
]